{
  "type": "FeatureCollection",
  "features": [
    {
      "type": "Feature",
      "properties": {
        "aoi_id": "mumbai_naval_anchorage",
        "name": "Mumbai Naval Dockyard & Coastal Anchorage",
        "region": "Arabian Sea Western Coast",
        "category": "maritime_vessel_monitoring"
      },
      "geometry": {
        "type": "Polygon",
        "coordinates": [
          [
            [72.8200, 18.9000],
            [72.8800, 18.9000],
            [72.8800, 18.9600],
            [72.8200, 18.9600],
            [72.8200, 18.9000]
          ]
        ]
      }
    }
  ]
}
