{
  "type": "FeatureCollection",
  "features": [
    {
      "type": "Feature",
      "properties": {
        "aoi_id": "chushul_rezang_la",
        "name": "Chushul Valley & Rezang La Ridge",
        "region": "Eastern Ladakh",
        "elevation_m": 4350
      },
      "geometry": {
        "type": "Polygon",
        "coordinates": [
          [
            [78.6000, 33.5000],
            [78.8500, 33.5000],
            [78.8500, 33.6800],
            [78.6000, 33.6800],
            [78.6000, 33.5000]
          ]
        ]
      }
    }
  ]
}
