{
  "type": "FeatureCollection",
  "features": [
    {
      "type": "Feature",
      "properties": {
        "aoi_id": "depsang_plains_y_junction",
        "name": "Depsang Plains Y-Junction Sector",
        "region": "Eastern Ladakh",
        "elevation_m": 4800
      },
      "geometry": {
        "type": "Polygon",
        "coordinates": [
          [
            [77.9500, 35.1500],
            [78.2000, 35.1500],
            [78.2000, 35.3500],
            [77.9500, 35.3500],
            [77.9500, 35.1500]
          ]
        ]
      }
    }
  ]
}
