{
  "type": "FeatureCollection",
  "features": [
    {
      "type": "Feature",
      "properties": {
        "aoi_id": "galwan_valley_confluence",
        "name": "Galwan Valley Confluence",
        "region": "Eastern Ladakh",
        "elevation_m": 4300
      },
      "geometry": {
        "type": "Polygon",
        "coordinates": [
          [
            [78.1000, 34.7000],
            [78.3500, 34.7000],
            [78.3500, 34.8500],
            [78.1000, 34.8500],
            [78.1000, 34.7000]
          ]
        ]
      }
    }
  ]
}
