{
  "type": "FeatureCollection",
  "features": [
    {
      "type": "Feature",
      "properties": {
        "aoi_id": "hot_springs_gogra",
        "name": "Hot Springs & Gogra Post (PP-15 & PP-17A)",
        "region": "Eastern Ladakh",
        "elevation_m": 4500
      },
      "geometry": {
        "type": "Polygon",
        "coordinates": [
          [
            [78.8500, 34.2000],
            [79.1000, 34.2000],
            [79.1000, 34.3500],
            [78.8500, 34.3500],
            [78.8500, 34.2000]
          ]
        ]
      }
    }
  ]
}
