{
  "type": "FeatureCollection",
  "features": [
    {
      "type": "Feature",
      "properties": {
        "aoi_id": "pangong_tso_north_bank",
        "name": "Pangong Tso North & South Banks",
        "region": "Eastern Ladakh",
        "elevation_m": 4225
      },
      "geometry": {
        "type": "Polygon",
        "coordinates": [
          [
            [78.5000, 33.7000],
            [78.7500, 33.7000],
            [78.7500, 33.8500],
            [78.5000, 33.8500],
            [78.5000, 33.7000]
          ]
        ]
      }
    }
  ]
}
